LIZZIESAT-1 (LS-1)      
1 59132U 24043AL  26068.89230471  .00005784  00000+0  22329-3 0  9993
2 59132  97.5461 203.4772 0009923 229.9925 130.0443 15.26635711111780
BANDWAGON-4 OBJECT P    
1 66306U 25248P   26067.98083108  .00022647  00000+0  92291-3 0  9996
2 66306  45.4037 295.4322 0012078 209.3167 150.7044 15.24098352 19290
